[{"OBJECT_NAME":"STARLINK-1795","OBJECT_ID":"2020-073AC","EPOCH":"2026-03-10T00:00:02.999808","MEAN_MOTION":15.67071138,"ECCENTRICITY":0.00023019,"INCLINATION":53.0409,"RA_OF_ASC_NODE":179.3296,"ARG_OF_PERICENTER":81.349,"MEAN_ANOMALY":194.9515,"EPHEMERIS_TYPE":0,"CLASSIFICATION_TYPE":"U","NORAD_CAT_ID":46696,"ELEMENT_SET_NO":999,"REV_AT_EPOCH":589,"BSTAR":0.00013904213,"MEAN_MOTION_DOT":0.00014578,"MEAN_MOTION_DDOT":0},{"OBJECT_NAME":"PSLV R\/B","OBJECT_ID":"2022-013D","EPOCH":"2026-03-09T16:30:06.230304","MEAN_MOTION":15.6423675,"ECCENTRICITY":0.00125272,"INCLINATION":97.4518,"RA_OF_ASC_NODE":121.4885,"ARG_OF_PERICENTER":118.9618,"MEAN_ANOMALY":241.2898,"EPHEMERIS_TYPE":0,"CLASSIFICATION_TYPE":"U","NORAD_CAT_ID":51659,"ELEMENT_SET_NO":999,"REV_AT_EPOCH":22709,"BSTAR":0.00053235424,"MEAN_MOTION_DOT":0.00050953,"MEAN_MOTION_DDOT":0}]
